FENGYUN 1C DEB          
1 29850U 99025EU  17345.66150760  .00000046  00000-0  61629-4 0  9998
2 29850  98.1112 229.4298 0109296 213.7129 200.0945 13.91596769553038
